[
  {
    "OBJECT_NAME": "DIWATA-2B",
    "OBJECT_ID": "2018-084H",
    "EPOCH": "2025-05-24T19:52:00.693984",
    "MEAN_MOTION": 14.98258293,
    "ECCENTRICITY": 0.0007328,
    "INCLINATION": 98.1022,
    "RA_OF_ASC_NODE": 320.3517,
    "ARG_OF_PERICENTER": 349.6179,
    "MEAN_ANOMALY": 10.489,
    "EPHEMERIS_TYPE": 0,
    "CLASSIFICATION_TYPE": "U",
    "NORAD_CAT_ID": 43678,
    "ELEMENT_SET_NO": 999,
    "REV_AT_EPOCH": 35802,
    "BSTAR": 0.00019692,
    "MEAN_MOTION_DOT": 2.278e-05,
    "MEAN_MOTION_DDOT": 0
  },
  {
    "OBJECT_NAME": "ES'HAIL 2",
    "OBJECT_ID": "2018-090A",
    "EPOCH": "2025-05-24T12:31:35.067360",
    "MEAN_MOTION": 1.0027183,
    "ECCENTRICITY": 0.0001989,
    "INCLINATION": 0.0131,
    "RA_OF_ASC_NODE": 346.944,
    "ARG_OF_PERICENTER": 114.89,
    "MEAN_ANOMALY": 354.2182,
    "EPHEMERIS_TYPE": 0,
    "CLASSIFICATION_TYPE": "U",
    "NORAD_CAT_ID": 43700,
    "ELEMENT_SET_NO": 999,
    "REV_AT_EPOCH": 2378,
    "BSTAR": 0,
    "MEAN_MOTION_DOT": 1.53e-06,
    "MEAN_MOTION_DDOT": 0
  },
  {
    "OBJECT_NAME": "FOX-1CLIFF (AO-95)",
    "OBJECT_ID": "2018-099N",
    "EPOCH": "2025-05-24T03:49:18.012864",
    "MEAN_MOTION": 15.16929682,
    "ECCENTRICITY": 0.0009026,
    "INCLINATION": 97.4928,
    "RA_OF_ASC_NODE": 202.4289,
    "ARG_OF_PERICENTER": 266.7652,
    "MEAN_ANOMALY": 93.2549,
    "EPHEMERIS_TYPE": 0,
    "CLASSIFICATION_TYPE": "U",
    "NORAD_CAT_ID": 43770,
    "ELEMENT_SET_NO": 999,
    "REV_AT_EPOCH": 35406,
    "BSTAR": 0.00036755,
    "MEAN_MOTION_DOT": 7.189e-05,
    "MEAN_MOTION_DDOT": 0
  },
  {
    "OBJECT_NAME": "ITASAT",
    "OBJECT_ID": "2018-099AE",
    "EPOCH": "2025-05-24T14:31:34.253184",
    "MEAN_MOTION": 15.12725035,
    "ECCENTRICITY": 0.0012669,
    "INCLINATION": 97.4579,
    "RA_OF_ASC_NODE": 199.3076,
    "ARG_OF_PERICENTER": 259.1726,
    "MEAN_ANOMALY": 100.8079,
    "EPHEMERIS_TYPE": 0,
    "CLASSIFICATION_TYPE": "U",
    "NORAD_CAT_ID": 43786,
    "ELEMENT_SET_NO": 999,
    "REV_AT_EPOCH": 35404,
    "BSTAR": 0.00027013,
    "MEAN_MOTION_DOT": 4.676e-05,
    "MEAN_MOTION_DDOT": 0
  },
  {
    "OBJECT_NAME": "JY1SAT (JO-97)",
    "OBJECT_ID": "2018-099AX",
    "EPOCH": "2025-05-24T15:50:23.883360",
    "MEAN_MOTION": 15.20452401,
    "ECCENTRICITY": 0.000767,
    "INCLINATION": 97.4674,
    "RA_OF_ASC_NODE": 203.8819,
    "ARG_OF_PERICENTER": 187.8023,
    "MEAN_ANOMALY": 172.3094,
    "EPHEMERIS_TYPE": 0,
    "CLASSIFICATION_TYPE": "U",
    "NORAD_CAT_ID": 43803,
    "ELEMENT_SET_NO": 999,
    "REV_AT_EPOCH": 35435,
    "BSTAR": 0.00042113,
    "MEAN_MOTION_DOT": 9.132e-05,
    "MEAN_MOTION_DDOT": 0
  },
  {
    "OBJECT_NAME": "UWE-4",
    "OBJECT_ID": "2018-111E",
    "EPOCH": "2025-05-24T12:53:26.168352",
    "MEAN_MOTION": 15.25429257,
    "ECCENTRICITY": 0.0009811,
    "INCLINATION": 97.5918,
    "RA_OF_ASC_NODE": 57.1714,
    "ARG_OF_PERICENTER": 266.587,
    "MEAN_ANOMALY": 93.4245,
    "EPHEMERIS_TYPE": 0,
    "CLASSIFICATION_TYPE": "U",
    "NORAD_CAT_ID": 43880,
    "ELEMENT_SET_NO": 999,
    "REV_AT_EPOCH": 35118,
    "BSTAR": 0.00043726,
    "MEAN_MOTION_DOT": 0.00010998,
    "MEAN_MOTION_DDOT": 0
  },
  {
    "OBJECT_NAME": "DUCHIFAT-3",
    "OBJECT_ID": "2019-089C",
    "EPOCH": "2025-05-24T05:15:38.937888",
    "MEAN_MOTION": 15.45151831,
    "ECCENTRICITY": 0.0003398,
    "INCLINATION": 36.9427,
    "RA_OF_ASC_NODE": 99.1109,
    "ARG_OF_PERICENTER": 220.479,
    "MEAN_ANOMALY": 139.5713,
    "EPHEMERIS_TYPE": 0,
    "CLASSIFICATION_TYPE": "U",
    "NORAD_CAT_ID": 44854,
    "ELEMENT_SET_NO": 999,
    "REV_AT_EPOCH": 30041,
    "BSTAR": 0.0007305,
    "MEAN_MOTION_DOT": 0.00035653,
    "MEAN_MOTION_DDOT": 0
  },
  {
    "OBJECT_NAME": "TIANYAN 01",
    "OBJECT_ID": "2019-093C",
    "EPOCH": "2025-05-24T20:47:20.759136",
    "MEAN_MOTION": 14.85568093,
    "ECCENTRICITY": 0.0012358,
    "INCLINATION": 97.7926,
    "RA_OF_ASC_NODE": 220.8443,
    "ARG_OF_PERICENTER": 284.6495,
    "MEAN_ANOMALY": 75.335,
    "EPHEMERIS_TYPE": 0,
    "CLASSIFICATION_TYPE": "U",
    "NORAD_CAT_ID": 44881,
    "ELEMENT_SET_NO": 999,
    "REV_AT_EPOCH": 29374,
    "BSTAR": 9.6323e-05,
    "MEAN_MOTION_DOT": 7.8e-06,
    "MEAN_MOTION_DDOT": 0
  },
  {
    "OBJECT_NAME": "RS-44 & BREEZE-KM R/B",
    "OBJECT_ID": "2019-096E",
    "EPOCH": "2025-05-24T08:53:49.221312",
    "MEAN_MOTION": 12.79740575,
    "ECCENTRICITY": 0.0216854,
    "INCLINATION": 82.5224,
    "RA_OF_ASC_NODE": 238.0456,
    "ARG_OF_PERICENTER": 333.7565,
    "MEAN_ANOMALY": 25.2673,
    "EPHEMERIS_TYPE": 0,
    "CLASSIFICATION_TYPE": "U",
    "NORAD_CAT_ID": 44909,
    "ELEMENT_SET_NO": 999,
    "REV_AT_EPOCH": 25261,
    "BSTAR": -4.7475e-05,
    "MEAN_MOTION_DOT": -2e-08,
    "MEAN_MOTION_DDOT": 0
  },
  {
    "OBJECT_NAME": "SALSAT",
    "OBJECT_ID": "2020-068K",
    "EPOCH": "2025-05-24T10:47:12.671808",
    "MEAN_MOTION": 15.22515293,
    "ECCENTRICITY": 0.0010311,
    "INCLINATION": 97.859,
    "RA_OF_ASC_NODE": 121.7366,
    "ARG_OF_PERICENTER": 210.325,
    "MEAN_ANOMALY": 149.7389,
    "EPHEMERIS_TYPE": 0,
    "CLASSIFICATION_TYPE": "U",
    "NORAD_CAT_ID": 46495,
    "ELEMENT_SET_NO": 999,
    "REV_AT_EPOCH": 25607,
    "BSTAR": 0.00023684,
    "MEAN_MOTION_DOT": 5.42e-05,
    "MEAN_MOTION_DDOT": 0
  },
  {
    "OBJECT_NAME": "LEDSAT",
    "OBJECT_ID": "2021-073D",
    "EPOCH": "2025-05-24T18:43:16.387392",
    "MEAN_MOTION": 15.5860043,
    "ECCENTRICITY": 0.001142,
    "INCLINATION": 97.3905,
    "RA_OF_ASC_NODE": 225.6823,
    "ARG_OF_PERICENTER": 138.5939,
    "MEAN_ANOMALY": 221.6184,
    "EPHEMERIS_TYPE": 0,
    "CLASSIFICATION_TYPE": "U",
    "NORAD_CAT_ID": 49069,
    "ELEMENT_SET_NO": 999,
    "REV_AT_EPOCH": 20897,
    "BSTAR": 0.00067801,
    "MEAN_MOTION_DOT": 0.00052237,
    "MEAN_MOTION_DDOT": 0
  },
  {
    "OBJECT_NAME": "XW-3 (CAS-9)",
    "OBJECT_ID": "2021-131B",
    "EPOCH": "2025-05-24T20:35:13.719552",
    "MEAN_MOTION": 14.40794131,
    "ECCENTRICITY": 0.0004477,
    "INCLINATION": 98.5095,
    "RA_OF_ASC_NODE": 234.2884,
    "ARG_OF_PERICENTER": 167.367,
    "MEAN_ANOMALY": 192.7632,
    "EPHEMERIS_TYPE": 0,
    "CLASSIFICATION_TYPE": "U",
    "NORAD_CAT_ID": 50466,
    "ELEMENT_SET_NO": 999,
    "REV_AT_EPOCH": 17918,
    "BSTAR": 0.00015902,
    "MEAN_MOTION_DOT": 4.65e-06,
    "MEAN_MOTION_DDOT": 0
  },
  {
    "OBJECT_NAME": "GREENCUBE (IO-117)",
    "OBJECT_ID": "2022-080E",
    "EPOCH": "2025-05-24T17:10:52.639392",
    "MEAN_MOTION": 6.42584099,
    "ECCENTRICITY": 0.0008666,
    "INCLINATION": 70.1378,
    "RA_OF_ASC_NODE": 73.3355,
    "ARG_OF_PERICENTER": 12.1691,
    "MEAN_ANOMALY": 347.9177,
    "EPHEMERIS_TYPE": 0,
    "CLASSIFICATION_TYPE": "U",
    "NORAD_CAT_ID": 53109,
    "ELEMENT_SET_NO": 999,
    "REV_AT_EPOCH": 6710,
    "BSTAR": 0,
    "MEAN_MOTION_DOT": -3e-08,
    "MEAN_MOTION_DDOT": 0
  },
  {
    "OBJECT_NAME": "STRATOSAT-TK 1 (RS52S)",
    "OBJECT_ID": "2023-091B",
    "EPOCH": "2025-05-24T20:25:17.928480",
    "MEAN_MOTION": 15.39039291,
    "ECCENTRICITY": 0.0007508,
    "INCLINATION": 97.5545,
    "RA_OF_ASC_NODE": 207.8431,
    "ARG_OF_PERICENTER": 17.2775,
    "MEAN_ANOMALY": 342.8724,
    "EPHEMERIS_TYPE": 0,
    "CLASSIFICATION_TYPE": "U",
    "NORAD_CAT_ID": 57167,
    "ELEMENT_SET_NO": 999,
    "REV_AT_EPOCH": 10559,
    "BSTAR": 0.00078176,
    "MEAN_MOTION_DOT": 0.00030249,
    "MEAN_MOTION_DDOT": 0
  }
]