DIWATA-2B               
1 43678U 18084H   25144.82778581  .00002278  00000+0  19692-3 0  9999
2 43678  98.1022 320.3517 0007328 349.6179  10.4890 14.98258293358023
ES'HAIL 2               
1 43700U 18090A   25144.52193365  .00000153  00000+0  00000+0 0  9999
2 43700   0.0131 346.9440 0001989 114.8900 354.2182  1.00271830 23788
FOX-1CLIFF (AO-95)      
1 43770U 18099N   25144.15923626  .00007189  00000+0  36755-3 0  9991
2 43770  97.4928 202.4289 0009026 266.7652  93.2549 15.16929682354069
ITASAT                  
1 43786U 18099AE  25144.60525756  .00004676  00000+0  27013-3 0  9995
2 43786  97.4579 199.3076 0012669 259.1726 100.8079 15.12725035354044
JY1SAT (JO-97)          
1 43803U 18099AX  25144.65999865  .00009132  00000+0  42113-3 0  9996
2 43803  97.4674 203.8819 0007670 187.8023 172.3094 15.20452401354357
UWE-4                   
1 43880U 18111E   25144.53710843  .00010998  00000+0  43726-3 0  9993
2 43880  97.5918  57.1714 0009811 266.5870  93.4245 15.25429257351189
DUCHIFAT-3              
1 44854U 19089C   25144.21920067  .00035653  00000+0  73050-3 0  9994
2 44854  36.9427  99.1109 0003398 220.4790 139.5713 15.45151831300415
TIANYAN 01              
1 44881U 19093C   25144.86621249  .00000780  00000+0  96323-4 0  9992
2 44881  97.7926 220.8443 0012358 284.6495  75.3350 14.85568093293744
RS-44 & BREEZE-KM R/B   
1 44909U 19096E   25144.37070858 -.00000002  00000+0 -47475-4 0  9999
2 44909  82.5224 238.0456 0216854 333.7565  25.2673 12.79740575252615
SALSAT                  
1 46495U 20068K   25144.44945222  .00005420  00000+0  23684-3 0  9998
2 46495  97.8590 121.7366 0010311 210.3250 149.7389 15.22515293256079
LEDSAT                  
1 49069U 21073D   25144.78005078  .00052237  00000+0  67801-3 0  9995
2 49069  97.3905 225.6823 0011420 138.5939 221.6184 15.58600430208979
XW-3 (CAS-9)            
1 50466U 21131B   25144.85779768  .00000465  00000+0  15902-3 0  9996
2 50466  98.5095 234.2884 0004477 167.3670 192.7632 14.40794131179182
GREENCUBE (IO-117)      
1 53109U 22080E   25144.71588703 -.00000003  00000+0  00000+0 0  9997
2 53109  70.1378  73.3355 0008666  12.1691 347.9177  6.42584099 67107
STRATOSAT-TK 1 (RS52S)  
1 57167U 23091B   25144.85090195  .00030249  00000+0  78176-3 0  9993
2 57167  97.5545 207.8431 0007508  17.2775 342.8724 15.39039291105599
